[{"OBJECT_NAME":"IRIDE-MS2-HEO-6","OBJECT_ID":"2025-135BA","EPOCH":"2026-03-09T21:52:31.046880","MEAN_MOTION":14.93647104,"ECCENTRICITY":0.00022697,"INCLINATION":97.7585,"RA_OF_ASC_NODE":184.4002,"ARG_OF_PERICENTER":299.868,"MEAN_ANOMALY":60.2314,"EPHEMERIS_TYPE":0,"CLASSIFICATION_TYPE":"U","NORAD_CAT_ID":64576,"ELEMENT_SET_NO":999,"REV_AT_EPOCH":3907,"BSTAR":0.00032394524,"MEAN_MOTION_DOT":3.366e-5,"MEAN_MOTION_DDOT":0},{"OBJECT_NAME":"GSLV R\/B","OBJECT_ID":"2022-138AN","EPOCH":"2026-03-09T17:17:59.229888","MEAN_MOTION":14.96774296,"ECCENTRICITY":0.00230204,"INCLINATION":87.3876,"RA_OF_ASC_NODE":166.352,"ARG_OF_PERICENTER":146.6269,"MEAN_ANOMALY":213.6419,"EPHEMERIS_TYPE":0,"CLASSIFICATION_TYPE":"U","NORAD_CAT_ID":54149,"ELEMENT_SET_NO":999,"REV_AT_EPOCH":18393,"BSTAR":0.00032104808,"MEAN_MOTION_DOT":3.719e-5,"MEAN_MOTION_DDOT":0}]
